[{"OBJECT_NAME":"OBJECT L","OBJECT_ID":"2023-085L","EPOCH":"2026-03-09T23:02:21.999840","MEAN_MOTION":15.29079976,"ECCENTRICITY":0.0005428,"INCLINATION":97.486,"RA_OF_ASC_NODE":178.8598,"ARG_OF_PERICENTER":50.8528,"MEAN_ANOMALY":309.3193,"EPHEMERIS_TYPE":0,"CLASSIFICATION_TYPE":"U","NORAD_CAT_ID":57014,"ELEMENT_SET_NO":999,"REV_AT_EPOCH":15144,"BSTAR":0.00063462603,"MEAN_MOTION_DOT":0.00017871,"MEAN_MOTION_DDOT":0},{"OBJECT_NAME":"STARLINK-35348","OBJECT_ID":"2025-224Y","EPOCH":"2026-03-09T06:34:20.491392","MEAN_MOTION":15.301986,"ECCENTRICITY":0.00010803,"INCLINATION":53.1596,"RA_OF_ASC_NODE":13.0618,"ARG_OF_PERICENTER":66.3027,"MEAN_ANOMALY":293.8087,"EPHEMERIS_TYPE":0,"CLASSIFICATION_TYPE":"U","NORAD_CAT_ID":65904,"ELEMENT_SET_NO":999,"REV_AT_EPOCH":2476,"BSTAR":0.00090925509,"MEAN_MOTION_DOT":0.00026666,"MEAN_MOTION_DDOT":0}]
